{"type":"FeatureCollection","attribution":"(c) OpenStreetMap contributors, ODbL 1.0, https://www.openstreetmap.org/copyright","features":[{"type":"Feature","properties":{"name":"kl_s0","length_m":5567.9,"nodes":252,"roads":["Jalan Chan Sow Lin","Jalan Foss","Jalan Imbi","Jalan Kampung Pandan","Jalan Metro Pudu","Jalan Metro Pudu 2","Jalan Pasar","Jalan Pudu","Jalan Sungai Besi","Jalan Tun Razak"]},"geometry":{"type":"LineString","coordinates":[[101.7139904,3.1299876],[101.7137623,3.1297526],[101.7133347,3.1292801],[101.7133062,3.1292486],[101.7130495,3.128965],[101.7130324,3.1289235],[101.7130297,3.1288726],[101.71307,3.1285298],[101.7130796,3.1284823],[101.7130968,3.1284535],[101.713323,3.1282483],[101.7136145,3.1280036],[101.7139073,3.1277518],[101.7139021,3.1276588],[101.7138652,3.1275972],[101.7138375,3.1275353],[101.7141877,3.1271583],[101.7142489,3.1271051],[101.7143398,3.1269336],[101.7144325,3.1267716],[101.7144674,3.1266899],[101.7145023,3.1265694],[101.7145117,3.1264783],[101.7144902,3.126394],[101.7144459,3.1263176],[101.714395,3.1262453],[101.7143494,3.1261819],[101.7144005,3.1261279],[101.7144409,3.1260853],[101.7144694,3.1260552],[101.7145019,3.1260378],[101.714519,3.1260331],[101.7145279,3.1260306],[101.7145452,3.1260287],[101.714572,3.1260314],[101.7146267,3.1261029],[101.7147558,3.1262008],[101.71501,3.1263708],[101.7153883,3.1266169],[101.7155197,3.1267363],[101.7156223,3.1268586],[101.7156981,3.1270267],[101.7157487,3.1273411],[101.7158187,3.1276898],[101.7158774,3.1279823],[101.7159148,3.1281937],[101.7159355,3.1283104],[101.7159708,3.1284892],[101.7160642,3.1288708],[101.7160705,3.1288964],[101.7161063,3.1290405],[101.7161985,3.1292422],[101.7163246,3.1294215],[101.716506,3.1296386],[101.7169823,3.1301948],[101.7172632,3.1305669],[101.7173379,3.1306849],[101.7174006,3.1308006],[101.7174803,3.1310054],[101.7175447,3.131161],[101.7175874,3.1312579],[101.7176133,3.1313229],[101.7177297,3.1316492],[101.7177739,3.1318037],[101.7178012,3.131963],[101.7179116,3.132642],[101.7179921,3.1329603],[101.7180047,3.1330014],[101.7180802,3.1332464],[101.7181348,3.1334237],[101.7181486,3.1334684],[101.7182265,3.1337213],[101.7183237,3.1340369],[101.718399,3.1342814],[101.7184045,3.134299],[101.7184679,3.1345028],[101.7184836,3.1345561],[101.7185099,3.1346419],[101.7185418,3.1347449],[101.7186093,3.1349643],[101.7186885,3.1352212],[101.7186984,3.1352533],[101.71873,3.1353562],[101.7189312,3.1360028],[101.7189383,3.1360461],[101.7189347,3.1360918],[101.7188929,3.1362402],[101.7188451,3.1363652],[101.7187978,3.1364693],[101.7187613,3.1365544],[101.7187359,3.1366023],[101.7187326,3.1366139],[101.7187284,3.1366328],[101.7187251,3.1366605],[101.7187276,3.1367194],[101.7188138,3.1368288],[101.7189672,3.1370736],[101.7190903,3.1373957],[101.7191769,3.1375596],[101.7192421,3.1376831],[101.7193669,3.137975],[101.719412,3.1381145],[101.7194541,3.1384367],[101.7193842,3.1386453],[101.7192599,3.1388479],[101.7191784,3.1389612],[101.7190679,3.1390552],[101.7189576,3.1391072],[101.7188043,3.1391701],[101.7182694,3.1393198],[101.7177301,3.1394657],[101.7174451,3.1395146],[101.7168729,3.13965],[101.7166493,3.1397115],[101.7162285,3.1398972],[101.7160134,3.1400105],[101.7158498,3.1401366],[101.7157986,3.1402103],[101.7157777,3.1402792],[101.7157021,3.1403172],[101.7150599,3.1406823],[101.7148027,3.140854],[101.7144611,3.1410926],[101.7143151,3.1411977],[101.7141831,3.141312],[101.7139407,3.1415487],[101.7136406,3.1419188],[101.7135092,3.142083],[101.7130278,3.1425567],[101.7128588,3.1427242],[101.7127817,3.142748],[101.7124814,3.1430867],[101.7123571,3.1432037],[101.7123056,3.1432405],[101.712264,3.1432609],[101.7122004,3.143293],[101.7120409,3.1433126],[101.7119967,3.143318],[101.7117969,3.1433112],[101.7117316,3.1433168],[101.7116115,3.1433353],[101.711432,3.1433091],[101.7113352,3.1432771],[101.7110346,3.1431916],[101.7107929,3.1431202],[101.7107278,3.1431009],[101.7105472,3.1430475],[101.7099381,3.1428918],[101.7098443,3.1428666],[101.7096726,3.1428205],[101.7095323,3.1427796],[101.7094538,3.1427556],[101.7091968,3.1426769],[101.7091767,3.1426702],[101.7091567,3.1426632],[101.7089104,3.1425764],[101.7085871,3.142283],[101.7085216,3.1422127],[101.7084671,3.1421337],[101.7084543,3.1420915],[101.7084603,3.1420331],[101.7084752,3.1419557],[101.7084863,3.1419324],[101.7085571,3.1417838],[101.7086987,3.1414862],[101.70881,3.1412356],[101.7090424,3.1408786],[101.7093128,3.1405371],[101.7094827,3.1402982],[101.7095631,3.1401534],[101.7096376,3.1399897],[101.7097391,3.139817],[101.7097676,3.1396386],[101.7099121,3.1385882],[101.7099789,3.1382169],[101.7100189,3.1380908],[101.7100513,3.1380134],[101.7101031,3.1379329],[101.7102169,3.137775],[101.7103133,3.1376491],[101.7104162,3.1375333],[101.710594,3.1373793],[101.7107311,3.1372679],[101.7109865,3.1370665],[101.7112079,3.1368975],[101.7112293,3.136881],[101.7112651,3.1368531],[101.7113438,3.136792],[101.7118601,3.1363982],[101.7119684,3.1363023],[101.7120313,3.1362171],[101.7123343,3.1357517],[101.7128481,3.1349733],[101.7131819,3.1344748],[101.7131999,3.1344487],[101.7132569,3.134384],[101.713302,3.1343391],[101.7133223,3.1343189],[101.7132632,3.1342471],[101.7132386,3.1342115],[101.7132202,3.1341723],[101.7132046,3.1341283],[101.7131472,3.1337591],[101.7130929,3.1333719],[101.7130635,3.1331951],[101.7130311,3.1330361],[101.7129812,3.1328129],[101.7129713,3.1327686],[101.712953,3.1326868],[101.7129463,3.1326566],[101.7128974,3.132428],[101.7128473,3.1321934],[101.712796,3.1319398],[101.7127784,3.1318704],[101.7127652,3.131822],[101.7127598,3.1318022],[101.7127332,3.1317341],[101.7125293,3.1314221],[101.7124799,3.1313395],[101.712404,3.1312127],[101.712325,3.1310552],[101.7123485,3.1309891],[101.712382,3.1309456],[101.7124591,3.1308609],[101.7126315,3.1308201],[101.7127638,3.1307866],[101.7127962,3.1307784],[101.7128808,3.1307541],[101.7130485,3.1307207],[101.7131864,3.1307159],[101.7132051,3.1307166],[101.7133018,3.1307203],[101.7133204,3.130721],[101.7136713,3.1307682],[101.7138411,3.1307969],[101.7139981,3.1308284],[101.7148198,3.131579],[101.7148482,3.1315746],[101.7148671,3.13157],[101.714894,3.1315613],[101.7149438,3.1315369],[101.7149957,3.131497],[101.7150309,3.1314565],[101.7150545,3.1314182],[101.7150772,3.1313601],[101.7150816,3.1312831],[101.714974,3.1311917],[101.7148775,3.1311349],[101.7148681,3.1310595],[101.714852,3.1309743],[101.7141582,3.1301901],[101.7139904,3.1299876]]}}]}