{"type":"FeatureCollection","attribution":"(c) OpenStreetMap contributors, ODbL 1.0, https://www.openstreetmap.org/copyright","features":[{"type":"Feature","properties":{"name":"kl","length_m":5404.7,"nodes":192,"roads":["Damansara Link","Jalan Bangkung","Jalan Johar","Jalan Kasah","Jalan Maarof","Jalan Penaga","Jalan Setiapuspa","Jalan Tualang"]},"geometry":{"type":"LineString","coordinates":[[101.6688562,3.1411069],[101.6681649,3.141142],[101.6679511,3.1411349],[101.6668678,3.1410989],[101.6668582,3.1411725],[101.6667821,3.1417597],[101.6667482,3.1418812],[101.6666852,3.141961],[101.6666468,3.1421863],[101.666592,3.1422527],[101.6665447,3.14229],[101.6664981,3.14232],[101.6664317,3.1423478],[101.6663202,3.1423698],[101.6644622,3.1422759],[101.6641666,3.1423041],[101.6640541,3.1423246],[101.6639392,3.1423426],[101.6636695,3.1424169],[101.6634558,3.1424906],[101.6632399,3.142588],[101.6623475,3.143058],[101.6621882,3.1431419],[101.6619569,3.1432748],[101.6618824,3.1433176],[101.66183,3.1433477],[101.6617896,3.1433686],[101.6616913,3.1434598],[101.66165,3.1435157],[101.6616147,3.1435857],[101.6615805,3.1437759],[101.6615706,3.143959],[101.6615663,3.1440825],[101.6615371,3.1443489],[101.6615283,3.1444075],[101.6614673,3.1444782],[101.6614082,3.1445054],[101.6613236,3.1445133],[101.661193,3.1444594],[101.6611213,3.1444252],[101.6609915,3.1443542],[101.6608658,3.1442394],[101.6607121,3.1440294],[101.6604825,3.1434237],[101.6602447,3.1429443],[101.6598535,3.1422948],[101.6595284,3.1418165],[101.6591401,3.1413798],[101.6588215,3.1411517],[101.6582713,3.1409113],[101.6581029,3.1408605],[101.6578854,3.1407199],[101.6577614,3.1405909],[101.6576844,3.1404806],[101.6575545,3.1402999],[101.6575074,3.140215],[101.6573302,3.1398956],[101.6571235,3.1395232],[101.657493,3.1393512],[101.6576867,3.1392751],[101.6577709,3.1392522],[101.6580076,3.1391878],[101.6581263,3.1391864],[101.6581839,3.1392033],[101.658219,3.1392313],[101.6582537,3.1392701],[101.6583087,3.1393873],[101.6585302,3.1397217],[101.6586229,3.139915],[101.6589317,3.1404502],[101.6592657,3.1409131],[101.6595042,3.1412278],[101.6596726,3.1414414],[101.6601695,3.1420795],[101.6605156,3.142454],[101.6607625,3.1427315],[101.660893,3.1428702],[101.6610306,3.1429998],[101.6612321,3.1431477],[101.6613359,3.1432239],[101.6614687,3.1432929],[101.6617225,3.1433802],[101.661924,3.1434342],[101.6620597,3.1434681],[101.6622152,3.1435074],[101.6624101,3.1435787],[101.6625998,3.1436517],[101.6627757,3.1437253],[101.6629274,3.1438049],[101.6629319,3.1438081],[101.6630452,3.1438883],[101.663099,3.1439341],[101.6632585,3.1440989],[101.6633367,3.1441858],[101.6634127,3.1442746],[101.6636081,3.1445139],[101.6636806,3.144596],[101.6637354,3.1446476],[101.6637958,3.1446984],[101.663868,3.1447513],[101.663952,3.144804],[101.6640366,3.1448563],[101.6640924,3.144889],[101.6641413,3.1449158],[101.6642524,3.1449772],[101.6643211,3.1450138],[101.6643902,3.145069],[101.6644413,3.1451316],[101.664469,3.1452202],[101.6644572,3.1453086],[101.6644322,3.1453511],[101.664386,3.1453989],[101.6643408,3.1454326],[101.6642894,3.1454539],[101.6642292,3.1454638],[101.6641602,3.1454462],[101.6641013,3.1453982],[101.6640555,3.1453356],[101.6640267,3.1452298],[101.6640014,3.1451166],[101.6639718,3.1449726],[101.6639498,3.1448656],[101.663921,3.1447613],[101.6638826,3.1446456],[101.6638234,3.1445176],[101.663715,3.1443323],[101.6636371,3.1442374],[101.6634189,3.1439991],[101.6633114,3.1437947],[101.6630677,3.1436247],[101.6630018,3.1435921],[101.6627164,3.1434431],[101.6626599,3.1434012],[101.6626242,3.1433469],[101.6626182,3.1433291],[101.6626042,3.143288],[101.6625971,3.1432234],[101.6626049,3.1431568],[101.6626296,3.1431008],[101.6626689,3.1430489],[101.662881,3.1428824],[101.663257,3.1426868],[101.663501,3.1425808],[101.6637066,3.1425109],[101.663957,3.1424351],[101.6640641,3.1424181],[101.6641822,3.1423994],[101.6644383,3.1423713],[101.6645877,3.1423761],[101.6652302,3.1424221],[101.6663117,3.1424805],[101.6665942,3.1424951],[101.6666808,3.1424997],[101.6667784,3.1425055],[101.6669619,3.142512],[101.6672072,3.1425227],[101.667725,3.1425454],[101.668124,3.1425714],[101.6684667,3.1425902],[101.669109,3.1425668],[101.6697313,3.1425133],[101.6702214,3.1424403],[101.6703531,3.1424096],[101.6704845,3.1423667],[101.6706461,3.1423018],[101.6708042,3.142224],[101.671114,3.1420045],[101.6712979,3.1418381],[101.6714479,3.141667],[101.6715708,3.141489],[101.6716839,3.141292],[101.6717093,3.1412175],[101.6717775,3.1410177],[101.6718019,3.1409325],[101.6718741,3.1406804],[101.672324,3.1391686],[101.6723703,3.1390157],[101.6725598,3.13839],[101.6726036,3.1382454],[101.6726378,3.1381323],[101.6725535,3.1381138],[101.6725192,3.138227],[101.6718568,3.140416],[101.6717834,3.1406702],[101.6714206,3.140658],[101.6711216,3.1406848],[101.6709549,3.1407191],[101.670528,3.1408045],[101.6702012,3.1408728],[101.6697952,3.1409564],[101.6694793,3.1410214],[101.6688562,3.1411069]]}}]}